IRIDIUM 166             
1 43570U 18061B   25056.91558285  .00000017  00000+0 -10519-5 0  9995
2 43570  86.3918 255.7288 0002017  78.8175 281.3247 14.34217805345137
IRIDIUM 158             
1 43571U 18061C   25056.95363875  .00000007  00000+0 -45179-5 0  9998
2 43571  86.3918 255.7226 0002153  90.6831 269.4612 14.34217778345101
IRIDIUM 165             
1 43572U 18061D   25056.90923998  .00000104  00000+0  30136-4 0  9995
2 43572  86.3918 255.7785 0001873  86.3541 273.7869 14.34218247345126
IRIDIUM 154             
1 43574U 18061F   25056.92192526  .00000006  00000+0 -47610-5 0  9992
2 43574  86.3919 255.7759 0001890  88.8742 271.2670 14.34217739345149
IRIDIUM 163             
1 43575U 18061G   25056.90289802  .00000044  00000+0  85168-5 0  9996
2 43575  86.3916 255.7143 0002099  92.6084 267.5352 14.34217706345114
IRIDIUM 156             
1 43576U 18061H   25056.94729671  .00000007  00000+0 -45584-5 0  9992
2 43576  86.3917 255.7024 0002223  81.5159 278.6288 14.34217576345119
